{
  "norad_id": 59474,
  "name": "STARLINK-31581",
  "history": [
    {
      "epoch": "2026-03-28T20:09:47.227680Z",
      "apogee_km": 483.7276382987411,
      "perigee_km": 482.32137463637537,
      "latitude_deg": 4.575742043258152e-05,
      "longitude_deg": 150.54716102510693,
      "height_km": 482.7033408694823,
      "semi_major_axis_km": 6861.161506467558,
      "eccentricity": 0.00010248,
      "inclination_deg": 43.0028,
      "raan_deg": 279.2487,
      "arg_perigee_deg": 278.0001,
      "mean_anomaly_deg": 82.0735,
      "mean_motion_rev_day": 15.27588212
    }
  ]
}